
# Worst residual: 10.79 km
# MJD 60496.000000 (2024 Jul  5  0:00)
2023-075B = NORAD 56758 = Falcon 9-228 Stage 2
1 56758U 23075B   24187.49919926  .00000000  00000-0  00000-0 0 23995
2 56758 028.2228 074.0814 8229253 298.5846 057.3235 01.23478232    01

# Worst residual: 10.17 km
# MJD 60497.000000 (2024 Jul  6  0:00)
2023-075B = NORAD 56758 = Falcon 9-228 Stage 2
1 56758U 23075B   24188.49919926  .00000000  00000-0  00000-0 0 23996
2 56758 028.2260 073.8893 8229468 298.8873 141.8253 01.23486642    05

# Worst residual: 9.78 km
# MJD 60498.000000 (2024 Jul  7  0:00)
2023-075B = NORAD 56758 = Falcon 9-228 Stage 2
1 56758U 23075B   24189.49919926  .00000000  00000-0  00000-0 0 23997
2 56758 028.2349 073.6774 8229696 299.2090 226.3732 01.23496088    04

# Worst residual: 11.42 km
# MJD 60499.000000 (2024 Jul  8  0:00)
2023-075B = NORAD 56758 = Falcon 9-228 Stage 2
1 56758U 23075B   24190.49919926  .00000000  00000-0  00000-0 0 23999
2 56758 028.2394 073.4820 8229744 299.5189 310.9836 01.23515862    07

# Worst residual: 10.33 km
# MJD 60500.000000 (2024 Jul  9  0:00)
2023-075B = NORAD 56758 = Falcon 9-228 Stage 2
1 56758U 23075B   24191.49919926  .00000000  00000-0  00000-0 0 23990
2 56758 028.2461 073.2713 8229782 299.8360 035.6738 01.23547071    06

# Worst residual: 11.55 km
# MJD 60501.000000 (2024 Jul 10  0:00)
2023-075B = NORAD 56758 = Falcon 9-228 Stage 2
1 56758U 23075B   24192.49919926  .00000000  00000-0  00000-0 0 23991
2 56758 028.2530 073.0713 8230216 300.1448 120.4516 01.23569173    02

# Worst residual: 10.39 km
# MJD 60502.000000 (2024 Jul 11  0:00)
2023-075B = NORAD 56758 = Falcon 9-228 Stage 2
1 56758U 23075B   24193.49919926  .00000000  00000-0  00000-0 0 23992
2 56758 028.2627 072.8530 8230180 300.4764 205.3255 01.23591520    01

# Worst residual: 11.16 km
# MJD 60503.000000 (2024 Jul 12  0:00)
2023-075B = NORAD 56758 = Falcon 9-228 Stage 2
1 56758U 23075B   24194.49919926  .00000000  00000-0  00000-0 0 23993
2 56758 028.2720 072.6373 8230508 300.8091 290.3133 01.23627511    08

# Worst residual: 11.15 km
# MJD 60504.000000 (2024 Jul 13  0:00)
2023-075B = NORAD 56758 = Falcon 9-228 Stage 2
1 56758U 23075B   24195.49919926  .00000000  00000-0  00000-0 0 23994
2 56758 028.2778 072.4317 8230056 301.1295 015.4494 01.23681833    08

# Worst residual: 10.20 km
# MJD 60505.000000 (2024 Jul 14  0:00)
2023-075B = NORAD 56758 = Falcon 9-228 Stage 2
1 56758U 23075B   24196.49919926  .00000000  00000-0  00000-0 0 23995
2 56758 028.2873 072.2263 8229898 301.4417 100.7447 01.23724093    05

# Worst residual: 11.15 km
# MJD 60506.000000 (2024 Jul 15  0:00)
2023-075B = NORAD 56758 = Falcon 9-228 Stage 2
1 56758U 23075B   24197.49919926  .00000000  00000-0  00000-0 0 23996
2 56758 028.2953 072.0159 8229511 301.7653 186.1651 01.23747938    01

# Worst residual: 11.12 km
# MJD 60507.000000 (2024 Jul 16  0:00)
2023-075B = NORAD 56758 = Falcon 9-228 Stage 2
1 56758U 23075B   24198.49919926  .00000000  00000-0  00000-0 0 23997
2 56758 028.3053 071.8073 8229669 302.0880 271.7112 01.23780657    03

# Worst residual: 11.81 km
# MJD 60508.000000 (2024 Jul 17  0:00)
2023-075B = NORAD 56758 = Falcon 9-228 Stage 2
1 56758U 23075B   24199.49919926  .00000000  00000-0  00000-0 0 23998
2 56758 028.3102 071.6066 8229056 302.3996 357.3808 01.23816228    06

# Worst residual: 10.64 km
# MJD 60509.000000 (2024 Jul 18  0:00)
2023-075B = NORAD 56758 = Falcon 9-228 Stage 2
1 56758U 23075B   24200.49919926  .00000000  00000-0  00000-0 0 23991
2 56758 028.3194 071.4032 8229010 302.7077 083.1642 01.23852247    03

# Worst residual: 10.74 km
# MJD 60510.000000 (2024 Jul 19  0:00)
2023-075B = NORAD 56758 = Falcon 9-228 Stage 2
1 56758U 23075B   24201.49919926  .00000000  00000-0  00000-0 0 23992
2 56758 028.3257 071.2035 8229074 303.0193 169.0369 01.23870279    02

# Worst residual: 12.55 km
# MJD 60511.000000 (2024 Jul 20  0:00)
2023-075B = NORAD 56758 = Falcon 9-228 Stage 2
1 56758U 23075B   24202.49919926  .00000000  00000-0  00000-0 0 23993
2 56758 028.3379 070.9870 8229605 303.3505 254.9964 01.23898251    05

# Worst residual: 11.93 km
# MJD 60512.000000 (2024 Jul 21  0:00)
2023-075B = NORAD 56758 = Falcon 9-228 Stage 2
1 56758U 23075B   24203.49919926  .00000000  00000-0  00000-0 0 23994
2 56758 028.3407 070.7923 8229420 303.6631 341.0712 01.23934768    05

# Worst residual: 10.46 km
# MJD 60513.000000 (2024 Jul 22  0:00)
2023-075B = NORAD 56758 = Falcon 9-228 Stage 2
1 56758U 23075B   24204.49919926  .00000000  00000-0  00000-0 0 23995
2 56758 028.3493 070.5879 8229339 303.9760 067.2953 01.23986952    09

# Worst residual: 10.19 km
# MJD 60514.000000 (2024 Jul 23  0:00)
2023-075B = NORAD 56758 = Falcon 9-228 Stage 2
1 56758U 23075B   24205.49919926  .00000000  00000-0  00000-0 0 23996
2 56758 028.3571 070.3855 8229242 304.2925 153.6863 01.24031576    02

# Worst residual: 10.89 km
# MJD 60515.000000 (2024 Jul 24  0:00)
2023-075B = NORAD 56758 = Falcon 9-228 Stage 2
1 56758U 23075B   24206.49919926  .00000000  00000-0  00000-0 0 23997
2 56758 028.3699 070.1642 8228965 304.6312 240.2791 01.24085435    06

# Worst residual: 19.60 km
# MJD 60516.000000 (2024 Jul 25  0:00)
2023-075B = NORAD 56758 = Falcon 9-228 Stage 2
1 56758U 23075B   24207.49919926  .00000000  00000-0  00000-0 0 23998
2 56758 028.3728 069.9703 8228397 304.9493 327.1413 01.24169948    03

# Worst residual: 17.61 km
# MJD 60517.000000 (2024 Jul 26  0:00)
2023-075B = NORAD 56758 = Falcon 9-228 Stage 2
1 56758U 23075B   24208.49919926  .00000000  00000-0  00000-0 0 23999
2 56758 028.3807 069.7659 8226935 305.2655 054.3785 01.24304204    06
